INTELSAT 21 (IS-21)     
1 38749U 12045A   26165.53459867 -.00000278  00000+0  00000+0 0  9996
2 38749   0.0172 326.2160 0001250 133.9005 297.1758  1.00271023 50495
INTELSAT 23 (IS-23)     
1 38867U 12057A   26165.46435002 -.00000277  00000+0  00000+0 0  9996
2 38867   0.0130 351.2755 0000360  84.7462 300.9054  1.00274536 49929
FM-6                    
1 39360U 13058A   26165.59438444  .00000000  00000+0  00000+0 0  9997
2 39360   0.0269  28.9368 0002558 140.0093 191.5580  1.00259849 46044
INTELSAT 30 (IS-30)     
1 40271U 14062A   26165.59863113 -.00000144  00000+0  00000+0 0  9991
2 40271   0.0255  45.9943 0001322 332.4493   4.9109  1.00272254  6763
DIRECTV 14              
1 40333U 14078B   26165.59776446 -.00000118  00000+0  00000+0 0  9990
2 40333   0.0123  18.9709 0000377 251.3664 108.5087  1.00269975 42014
DIRECTV 15              
1 40663U 15026A   26165.59707112 -.00000096  00000+0  00000+0 0  9999
2 40663   0.0167  16.3970 0000275 272.7007  85.8724  1.00269964 40432
SKY MEXICO-1            
1 40664U 15026B   26165.53052531 -.00000227  00000+0  00000+0 0  9998
2 40664   0.0172 352.9897 0001955 112.4922 269.5400  1.00270798 40426
INTELSAT 34 (IS-34)     
1 40874U 15039A   26165.46383002 -.00000278  00000+0  00000+0 0  9993
2 40874   0.0105 335.3821 0000490 359.9880  38.8912  1.00273179 39600
INTELSAT 31 (IS-31)     
1 41581U 16035A   26165.59863113 -.00000144  00000+0  00000+0 0  9998
2 41581   0.0198 270.2242 0001097 341.1599 131.9746  1.00271120 36652
INTELSAT 36 (IS-36)     
1 41747U 16053A   26165.55964544 -.00000017  00000+0  00000+0 0  9997
2 41747   0.0113 354.5464 0002024 334.9586 203.3223  1.00271719 35930
INTELSAT 32E (IS-32E)   
1 41945U 17007B   26165.46625670 -.00000261  00000+0  00000+0 0  9992
2 41945   0.0065 311.3526 0000686   1.8427  74.2518  1.00275059 34192
INTELSAT 35E (IS-35E)   
1 42818U 17041A   26165.46799003  .00000000  00000+0  00000+0 0  9992
2 42818   0.0257  11.0420 0001543  69.7715 315.9399  1.00268263 32782
INTELSAT 37E (IS-37E)   
1 42950U 17059A   26165.61388454  .00000000  00000+0  00000+0 0  9999
2 42950   0.0248  14.5902 0002330  92.8662 358.4642  1.00270959 32042
AZERSPACE 2 (IS-38)     
1 43632U 18074A   26165.62627792  .00000143  00000+0  00000+0 0  9995
2 43632   0.0013  15.4845 0001166  65.4050  92.6085  1.00269555 28424
HORIZONS-3E             
1 43633U 18074B   26165.57956437 -.00000024  00000+0  00000+0 0  9990
2 43633   0.0189 164.0772 0000957 105.3411  11.0994  1.00270456 28315
AT&T T-16               
1 44333U 19034A   26165.59741779 -.00000108  00000+0  00000+0 0  9991
2 44333   0.0156  49.2566 0000873 247.8748  79.9844  1.00270739 25604
INTELSAT 39 (IS-39)     
1 44476U 19049B   26165.63635131  .00000040  00000+0  00000+0 0  9998
2 44476   0.0179 336.9441 0000910 336.4821 240.5443  1.00270370 25101
GALAXY 30 (G-30)        
1 46114U 20056C   26165.59265110  .00000044  00000+0  00000+0 0  9994
2 46114   0.0176   4.2366 0002058  80.0337 266.9720  1.00270522 21261
GALAXY 33 (G-33)        
1 54026U 22128A   26165.59109109  .00000086  00000+0  00000+0 0  9998
2 54026   0.0120 344.2037 0001587 102.1245 256.3577  1.00271080 13717
GALAXY 34 (G-34)        
1 54027U 22128B   26165.59187110  .00000065  00000+0  00000+0 0  9994
2 54027   0.0139 348.6163 0001464 107.9139 250.4331  1.00275028 13882
GALAXY 31 (G-31)        
1 54243U 22153A   26165.59343110  .00000000  00000+0  00000+0 0  9995
2 54243   0.0200  18.5843 0000985  56.1573 280.7740  1.00270213  7102
GALAXY 32 (G-32)        
1 54244U 22153B   26165.59932447 -.00000167  00000+0  00000+0 0  9998
2 54244   0.0082 342.0111 0001979  54.9274 350.7184  1.00272447 13111
GALAXY 35 (G-35)        
1 54741U 22170A   26165.59897780  .00000000  00000+0  00000+0 0  9994
2 54741   0.0198   5.7576 0001777  80.2847 299.3792  1.00269209 12869
GALAXY 36 (G-36)        
1 54742U 22170B   26165.52853197 -.00000178  00000+0  00000+0 0  9999
2 54742   0.0420 123.2845 0002461 320.2370 280.5834  1.00271020 12742
GALAXY 37 (G-37)        
1 57493U 23112A   26165.59221777  .00000055  00000+0  00000+0 0  9995
2 57493   0.0204  54.7217 0001708  25.8893 268.4745  1.00271123 10513
